NORAD_CAT_ID,OBJECT_NAME,OBJECT_TYPE,EPOCH,MEAN_MOTION,ECCENTRICITY,INCLINATION,RA_OF_ASC_NODE,ARG_OF_PERICENTER,MEAN_ANOMALY,BSTAR,MEAN_MOTION_DOT,MEAN_MOTION_DDOT,TLE_LINE0,TLE_LINE1,TLE_LINE2,SEMIMAJOR_AXIS,PERIOD,APOGEE,PERIGEE,DECAYED
54008.0,STARLINK-5145,PAYLOAD,2023-05-27 03:31:48,15.08830071,0.0001236,53.2169,91.6884,92.1527,267.9607,-1.841e-05,-5.81e-06,0.0,0 STARLINK-5145,1 54008U 22125AW  23147.14708972 -.00000581  00000-0 -18410-4 0  9998,2 54008  53.2169  91.6884 0001236  92.1527 267.9607 15.08830071 35995,6917.911,95.438,540.631,538.921,0.0
54008.0,STARLINK-5145,PAYLOAD,2023-05-28 01:47:11,15.08833821,0.0001236,53.2168,87.5237,89.4738,270.6396,0.0001215,1.646e-05,0.0,0 STARLINK-5145,1 54008U 22125AW  23148.07444429  .00001646  00000-0  12150-3 0  9990,2 54008  53.2168  87.5237 0001236  89.4738 270.6396 15.08833821 36187,6917.899,95.438,540.619,538.909,0.0
54008.0,STARLINK-5145,PAYLOAD,2023-05-28 04:57:57,15.08844725,0.0001286,53.2173,86.9297,86.1051,274.0088,8.9888e-05,1.143e-05,0.0,0 STARLINK-5145,1 54008U 22125AW  23148.20691939  .00001143  00000-0  89888-4 0  9990,2 54008  53.2173  86.9297 0001286  86.1051 274.0088 15.08844725 36203,6917.866,95.437,540.621,538.841,0.0
54008.0,STARLINK-5145,PAYLOAD,2023-05-29 01:37:59,15.08835831,0.0001406,53.2178,83.0647,84.2827,275.8325,7.403e-05,8.9e-06,0.0,0 STARLINK-5145,1 54008U 22125AW  23149.06804624  .00000890  00000-0  74030-4 0  9993,2 54008  53.2178  83.0647 0001406  84.2827 275.8325 15.08835831 36334,6917.893,95.438,540.731,538.785,0.0
54008.0,STARLINK-5145,PAYLOAD,2023-05-29 07:59:31,15.08843766,0.0001437,53.2185,81.8695,78.7002,281.4151,0.00010985,1.461e-05,0.0,0 STARLINK-5145,1 54008U 22125AW  23149.33299973  .00001461  00000-0  10985-3 0  9991,2 54008  53.2185  81.8695 0001437  78.7002 281.4151 15.08843766 36378,6917.869,95.437,540.728,538.74,0.0
54008.0,STARLINK-5145,PAYLOAD,2023-05-29 19:07:14,15.08831572,0.0001296,53.2186,79.7931,71.466,288.6472,-0.00011258,-2.079e-05,0.0,0 STARLINK-5145,1 54008U 22125AW  23149.79669666 -.00002079  00000-0 -11258-3 0  9993,2 54008  53.2186  79.7931 0001296  71.4660 288.6472 15.08831572 36390,6917.906,95.438,540.668,538.875,0.0
54008.0,STARLINK-5145,PAYLOAD,2023-05-30 01:28:46,15.08836876,0.0001266,53.2174,78.6048,88.6319,271.4818,-7.0936e-05,-1.417e-05,0.0,0 STARLINK-5145,1 54008U 22125AW  23150.06165097 -.00001417  00000-0 -70936-4 0  9998,2 54008  53.2174  78.6048 0001266  88.6319 271.4818 15.08836876 36488,6917.89,95.438,540.631,538.879,0.0
54008.0,STARLINK-5145,PAYLOAD,2023-05-30 03:04:09,15.08840543,0.000136,53.2173,78.3065,91.2276,268.8872,-3.8554e-05,-9.01e-06,0.0,0 STARLINK-5145,1 54008U 22125AW  23150.12788757 -.00000901  00000-0 -38554-4 0  9996,2 54008  53.2173  78.3065 0001360  91.2276 268.8872 15.08840543 36442,6917.879,95.438,540.685,538.803,0.0
54008.0,STARLINK-5145,PAYLOAD,2023-05-30 18:58:00,15.08841003,0.0001302,53.2171,75.3334,112.3812,247.7318,-4.854e-05,-1.06e-05,0.0,0 STARLINK-5145,1 54008U 22125AW  23150.79028770 -.00001060  00000-0 -48540-4 0  9994,2 54008  53.2171  75.3334 0001302 112.3812 247.7318 15.08841003 36547,6917.877,95.437,540.643,538.842,0.0
54008.0,STARLINK-5145,PAYLOAD,2023-05-31 01:19:33,15.08843475,0.0001234,53.217,74.144,102.0669,258.0462,-7.4458e-06,-4.06e-06,0.0,0 STARLINK-5145,1 54008U 22125AW  23151.05524466 -.00000406  00000-0 -74458-5 0  9998,2 54008  53.2170  74.1440 0001234 102.0669 258.0462 15.08843475 36631,6917.87,95.437,540.588,538.881,0.0
54008.0,STARLINK-5145,PAYLOAD,2023-05-31 21:59:33,15.08839329,0.0001259,53.2172,70.2778,94.439,265.6746,4.8829e-05,4.89e-06,0.0,0 STARLINK-5145,1 54008U 22125AW  23151.91636549  .00000489  00000-0  48829-4 0  9990,2 54008  53.2172  70.2778 0001259  94.4390 265.6746 15.08839329 36717,6917.882,95.438,540.618,538.876,0.0
54008.0,STARLINK-5145,PAYLOAD,2023-06-01 04:21:05,15.08845768,0.0001291,53.2171,69.0877,97.2353,262.8786,9.5445e-05,1.232e-05,0.0,0 STARLINK-5145,1 54008U 22125AW  23152.18131938  .00001232  00000-0  95445-4 0  9995,2 54008  53.2171  69.0877 0001291  97.2353 262.8786 15.08845768 36759,6917.863,95.437,540.621,538.835,0.0
54008.0,STARLINK-5145,PAYLOAD,2023-06-02 01:01:07,15.08839433,0.0001156,53.2174,65.2217,86.3195,273.793,-6.2578e-06,-3.87e-06,0.0,0 STARLINK-5145,1 54008U 22125AW  23153.04244825 -.00000387  00000-0 -62578-5 0  9995,2 54008  53.2174  65.2217 0001156  86.3195 273.7930 15.08839433 36935,6917.882,95.438,540.547,538.947,0.0
54008.0,STARLINK-5145,PAYLOAD,2023-06-02 18:30:22,15.08836888,0.0001105,53.2168,61.9526,85.3263,274.7855,-8.6513e-05,-1.664e-05,0.0,0 STARLINK-5145,1 54008U 22125AW  23153.77109534 -.00001664  00000-0 -86513-4 0  9995,2 54008  53.2168  61.9526 0001105  85.3263 274.7855 15.08836888 37044,6917.89,95.438,540.519,538.99,0.0
54008.0,STARLINK-5145,PAYLOAD,2023-06-03 21:31:55,15.08839776,0.000112,53.2175,56.8972,76.9268,283.1849,-4.0953e-05,-9.4e-06,0.0,0 STARLINK-5145,1 54008U 22125AW  23154.89717562 -.00000940  00000-0 -40953-4 0  9999,2 54008  53.2175  56.8972 0001120  76.9268 283.1849 15.08839776 37167,6917.881,95.438,540.521,538.971,0.0
54008.0,STARLINK-5145,PAYLOAD,2023-06-04 00:42:42,15.08777126,0.00015,53.2174,56.3031,88.1079,272.0085,0.00079673,0.00012393,0.0,0 STARLINK-5145,1 54008U 22125AW  23155.02966315  .00012393  00000-0  79673-3 0  9990,2 54008  53.2174  56.3031 0001500  88.1079 272.0085 15.08777126 37231,6918.073,95.442,540.975,538.9,0.0
54008.0,STARLINK-5145,PAYLOAD,2023-06-04 21:22:42,15.08839425,0.0001187,53.218,52.4384,99.4198,260.6928,5.5976e-05,6.03e-06,0.0,0 STARLINK-5145,1 54008U 22125AW  23155.89077353  .00000603  00000-0  55976-4 0  9992,2 54008  53.2180  52.4384 0001187  99.4198 260.6928 15.08839425 37313,6917.882,95.438,540.568,538.926,0.0
54008.0,STARLINK-5145,PAYLOAD,2023-06-05 02:08:51,15.08845293,0.0001098,53.2171,51.5445,87.9038,272.208,9.7316e-05,1.262e-05,0.0,0 STARLINK-5145,1 54008U 22125AW  23156.08948839  .00001262  00000-0  97316-4 0  9996,2 54008  53.2171  51.5445 0001098  87.9038 272.2080 15.08845293 37393,6917.864,95.437,540.489,538.97,0.0
54008.0,STARLINK-5145,PAYLOAD,2023-06-05 18:02:43,15.08840833,0.0001234,53.2164,48.5691,104.7789,255.334,-3.2284e-05,-8.02e-06,0.0,0 STARLINK-5145,1 54008U 22125AW  23156.75189554 -.00000802  00000-0 -32284-4 0  9995,2 54008  53.2164  48.5691 0001234 104.7789 255.3340 15.08840833 37449,6917.878,95.438,540.597,538.889,0.0
54008.0,STARLINK-5145,PAYLOAD,2023-06-06 11:31:58,15.08838362,0.0001196,53.2166,45.2981,91.7248,268.3881,8.7046e-06,-1.49e-06,0.0,0 STARLINK-5145,1 54008U 22125AW  23157.48053544 -.00000149  00000-0  87046-5 0  9995,2 54008  53.2166  45.2981 0001196  91.7248 268.3881 15.08838362 37559,6917.885,95.438,540.578,538.923,0.0
54008.0,STARLINK-5145,PAYLOAD,2023-06-06 19:28:53,15.08842289,0.0001232,53.2174,43.8119,97.5835,262.5297,-3.6293e-05,-8.65e-06,0.0,0 STARLINK-5145,1 54008U 22125AW  23157.81173523 -.00000865  00000-0 -36293-4 0  9995,2 54008  53.2174  43.8119 0001232  97.5835 262.5297 15.08842289 37608,6917.873,95.437,540.591,538.886,0.0
54008.0,STARLINK-5145,PAYLOAD,2023-06-06 22:39:39,15.08846079,0.0001128,53.2171,43.2169,95.9613,264.1508,-8.2092e-06,-4.18e-06,0.0,0 STARLINK-5145,1 54008U 22125AW  23157.94421132 -.00000418  00000-0 -82092-5 0  9994,2 54008  53.2171  43.2169 0001128  95.9613 264.1508 15.08846079 37675,6917.862,95.437,540.507,538.946,0.0
54008.0,STARLINK-5145,PAYLOAD,2023-06-07 11:22:45,15.08839377,0.0001264,53.2168,40.8383,87.2717,272.8419,-3.0886e-05,-7.79e-06,0.0,0 STARLINK-5145,1 54008U 22125AW  23158.47413577 -.00000779  00000-0 -30886-4 0  9990,2 54008  53.2168  40.8383 0001264  87.2717 272.8419 15.08839377 37706,6917.882,95.438,540.622,538.873,0.0
54008.0,STARLINK-5145,PAYLOAD,2023-06-07 19:19:41,15.0883412,0.0001264,53.2169,39.3517,93.404,266.7097,-5.5325e-05,-1.168e-05,0.0,0 STARLINK-5145,1 54008U 22125AW  23158.80534141 -.00001168  00000-0 -55325-4 0  9996,2 54008  53.2169  39.3517 0001264  93.4040 266.7097 15.08834120 37803,6917.898,95.438,540.638,538.889,0.0
54008.0,STARLINK-5145,PAYLOAD,2023-06-07 20:55:04,15.08835522,0.0001158,53.2175,39.0547,92.3888,267.7237,-3.0053e-05,-7.66e-06,0.0,0 STARLINK-5145,1 54008U 22125AW  23158.87157988 -.00000766  00000-0 -30053-4 0  9997,2 54008  53.2175  39.0547 0001158  92.3888 267.7237 15.08835522 37769,6917.894,95.438,540.56,538.958,0.0
54008.0,STARLINK-5145,PAYLOAD,2023-06-07 22:30:27,15.0883671,0.0001104,53.217,38.7567,89.1414,270.9704,-1.934e-05,-5.96e-06,0.0,0 STARLINK-5145,1 54008U 22125AW  23158.93781880 -.00000596  00000-0 -19340-4 0  9995,2 54008  53.2170  38.7567 0001104  89.1414 270.9704 15.08836710 37778,6917.89,95.438,540.519,538.992,0.0
54008.0,STARLINK-5145,PAYLOAD,2023-06-09 01:31:59,15.08852898,0.0001255,53.2174,33.7024,81.1209,278.9925,1.8255e-05,3e-08,0.0,0 STARLINK-5145,1 54008U 22125AW  23160.06388835  .00000003  00000-0  18255-4 0  9990,2 54008  53.2174  33.7024 0001255  81.1209 278.9925 15.08852898 37998,6917.841,95.437,540.574,538.838,0.0
54008.0,STARLINK-5145,PAYLOAD,2023-06-09 22:12:01,15.08831146,9.43e-05,53.2175,29.8381,82.796,277.314,3.9633e-05,3.43e-06,0.0,0 STARLINK-5145,1 54008U 22125AW  23160.92502232  .00000343  00000-0  39633-4 0  9994,2 54008  53.2175  29.8381 0000943  82.7960 277.3140 15.08831146 38070,6917.907,95.438,540.425,539.12,0.0
54008.0,STARLINK-5145,PAYLOAD,2023-06-10 07:44:20,15.08838206,0.0001082,53.2174,28.0531,84.3324,275.7792,3.7026e-05,3.02e-06,0.0,0 STARLINK-5145,1 54008U 22125AW  23161.32245883  .00000302  00000-0  37026-4 0  9994,2 54008  53.2174  28.0531 0001082  84.3324 275.7792 15.08838206 38185,6917.886,95.438,540.499,539.002,0.0
54008.0,STARLINK-5145,PAYLOAD,2023-06-10 10:55:07,15.08841105,0.00011,53.2175,27.4591,87.7404,272.3714,-6.3492e-05,-1.298e-05,0.0,0 STARLINK-5145,1 54008U 22125AW  23161.45494213 -.00001298  00000-0 -63492-4 0  9994,2 54008  53.2175  27.4591 0001100  87.7404 272.3714 15.08841105 38158,6917.877,95.437,540.503,538.981,0.0
